{
  "type": "FeatureCollection",
  "features": [
    {
      "type": "Feature",
      "properties": {
        "type": "spotlight_boundary",
        "name": "Khanom power station",
        "radius_km": 103
      },
      "geometry": {
        "type": "Polygon",
        "coordinates": [
          [
            [
              99.8602294921875,
              10.161261046226107
            ],
            [
              99.95246440042804,
              10.156788537559176
            ],
            [
              100.04380359927602,
              10.14341445730621
            ],
            [
              100.13336031578682,
              10.12126870821781
            ],
            [
              100.22026554977809,
              10.090566351524876
            ],
            [
              100.30367671157327,
              10.051605459164188
            ],
            [
              100.3827859660665,
              10.004764141081514
            ],
            [
              100.45682819284733,
              9.950496781056966
            ],
            [
              100.52508847831072,
              9.88932952302637
            ],
            [
              100.58690906300352,
              9.821855057688405
            ],
            [
              100.64169567568024,
              9.748726766190734
            ],
            [
              100.68892319441458,
              9.670652283807787
            ],
            [
              100.72814058438782,
              9.588386551716022
            ],
            [
              100.7589750714205,
              9.502724429224443
            ],
            [
              100.7811355197178,
              9.414492942137871
            ],
            [
              100.79441499148962,
              9.324543245347412
            ],
            [
              100.79869247494425,
              9.233742379300796
            ],
            [
              100.79393377554426,
              9.14296490075907
            ],
            [
              100.78019157329571,
              9.053084468254058
            ],
            [
              100.75760465619733,
              8.964965461982214
            ],
            [
              100.72639634680888,
              8.87945471655945
            ],
            [
              100.68687214523727,
              8.79737344316728
            ],
            [
              100.63941661772822,
              8.719509415183138
            ],
            [
              100.58448956553511,
              8.646609488439092
            ],
            [
              100.52262151386142,
              8.579372523817414
            ],
            [
              100.45440856547384,
              8.518442775986717
            ],
            [
              100.38050666808118,
              8.464403807722825
            ],
            [
              100.30162534877735,
              8.41777298445783
            ],
            [
              100.21852097274083,
              8.378996598474052
            ],
            [
              100.13198958694504,
              8.348445666527244
            ],
            [
              100.04285941282063,
              8.326412438672449
            ],
            [
              99.95198305457764,
              8.31310764971196
            ],
            [
              99.8602294921875,
              8.308658538033523
            ],
            [
              99.76847592979738,
              8.31310764971196
            ],
            [
              99.67759957155437,
              8.326412438672449
            ],
            [
              99.58846939742996,
              8.348445666527244
            ],
            [
              99.50193801163417,
              8.378996598474052
            ],
            [
              99.41883363559765,
              8.41777298445783
            ],
            [
              99.33995231629382,
              8.464403807722825
            ],
            [
              99.26605041890116,
              8.518442775986717
            ],
            [
              99.19783747051359,
              8.579372523817414
            ],
            [
              99.13596941883992,
              8.646609488439092
            ],
            [
              99.0810423666468,
              8.719509415183138
            ],
            [
              99.03358683913774,
              8.79737344316728
            ],
            [
              98.99406263756615,
              8.87945471655945
            ],
            [
              98.9628543281777,
              8.964965461982214
            ],
            [
              98.9402674110793,
              9.053084468254054
            ],
            [
              98.92652520883074,
              9.14296490075907
            ],
            [
              98.92176650943075,
              9.233742379300796
            ],
            [
              98.9260439928854,
              9.324543245347412
            ],
            [
              98.9393234646572,
              9.414492942137871
            ],
            [
              98.9614839129545,
              9.502724429224443
            ],
            [
              98.99231839998718,
              9.588386551716022
            ],
            [
              99.03153578996044,
              9.670652283807787
            ],
            [
              99.07876330869476,
              9.748726766190734
            ],
            [
              99.13354992137148,
              9.821855057688405
            ],
            [
              99.19537050606428,
              9.88932952302637
            ],
            [
              99.26363079152767,
              9.950496781056966
            ],
            [
              99.3376730183085,
              10.004764141081514
            ],
            [
              99.41678227280173,
              10.051605459164188
            ],
            [
              99.5001934345969,
              10.090566351524876
            ],
            [
              99.5870986685882,
              10.12126870821781
            ],
            [
              99.67665538509898,
              10.14341445730621
            ],
            [
              99.76799458394696,
              10.156788537559176
            ],
            [
              99.8602294921875,
              10.161261046226107
            ]
          ]
        ]
      }
    },
    {
      "type": "Feature",
      "properties": {
        "type": "spotlight_center",
        "name": "Khanom power station",
        "radius_km": 103,
        "generation_mw": 1055.8
      },
      "geometry": {
        "type": "Point",
        "coordinates": [
          99.8602294921875,
          9.234959792129814
        ]
      }
    },
    {
      "type": "Feature",
      "properties": {
        "type": "plant",
        "name": "Khanom power station",
        "distance_km": 0,
        "capacity_mw": 970,
        "technology": null,
        "status": "(operating)",
        "source": "Global Energy Monitor"
      },
      "geometry": {
        "type": "Point",
        "coordinates": [
          99.8602294921875,
          9.234959792129814
        ]
      }
    },
    {
      "type": "Feature",
      "properties": {
        "type": "plant",
        "name": "TGE power station",
        "distance_km": 57.18,
        "capacity_mw": 10,
        "technology": null,
        "status": "(operating)",
        "source": "Global Energy Monitor"
      },
      "geometry": {
        "type": "Point",
        "coordinates": [
          99.349365234375,
          9.134639221716782
        ]
      }
    },
    {
      "type": "Feature",
      "properties": {
        "type": "plant",
        "name": "TPG power station",
        "distance_km": 57.44,
        "capacity_mw": 10,
        "technology": null,
        "status": "(operating)",
        "source": "Global Energy Monitor"
      },
      "geometry": {
        "type": "Point",
        "coordinates": [
          99.3438720703125,
          9.150909349452078
        ]
      }
    },
    {
      "type": "Feature",
      "properties": {
        "type": "plant",
        "name": "TBP power station",
        "distance_km": 58.39,
        "capacity_mw": 10,
        "technology": null,
        "status": "(operating)",
        "source": "Global Energy Monitor"
      },
      "geometry": {
        "type": "Point",
        "coordinates": [
          99.33563232421875,
          9.148197713142977
        ]
      }
    },
    {
      "type": "Feature",
      "properties": {
        "type": "plant",
        "name": "Thachang power station",
        "distance_km": 59.14,
        "capacity_mw": 10,
        "technology": null,
        "status": "(operating)",
        "source": "Global Energy Monitor"
      },
      "geometry": {
        "type": "Point",
        "coordinates": [
          99.33013916015625,
          9.140062680239737
        ]
      }
    },
    {
      "type": "Feature",
      "properties": {
        "type": "plant",
        "name": "Phunphin solar project I",
        "distance_km": 67.59,
        "capacity_mw": 2.2,
        "technology": null,
        "status": "(operating)",
        "source": "Global Energy Monitor"
      },
      "geometry": {
        "type": "Point",
        "coordinates": [
          99.2669677734375,
          9.072263527470966
        ]
      }
    },
    {
      "type": "Feature",
      "properties": {
        "type": "plant",
        "name": "Thailand solar project CCXV",
        "distance_km": 71.67,
        "capacity_mw": 4.7,
        "technology": null,
        "status": "(operating)",
        "source": "Global Energy Monitor"
      },
      "geometry": {
        "type": "Point",
        "coordinates": [
          99.3328857421875,
          8.855220591440954
        ]
      }
    },
    {
      "type": "Feature",
      "properties": {
        "type": "plant",
        "name": "Surat Thani (Green Energy Co) power station",
        "distance_km": 76.31,
        "capacity_mw": 10,
        "technology": null,
        "status": "(operating)",
        "source": "Global Energy Monitor"
      },
      "geometry": {
        "type": "Point",
        "coordinates": [
          99.2230224609375,
          8.961045222037129
        ]
      }
    },
    {
      "type": "Feature",
      "properties": {
        "type": "plant",
        "name": "Phunphin solar project II",
        "distance_km": 77.95,
        "capacity_mw": 2.3,
        "technology": null,
        "status": "(operating)",
        "source": "Global Energy Monitor"
      },
      "geometry": {
        "type": "Point",
        "coordinates": [
          99.1790771484375,
          9.037002898469424
        ]
      }
    },
    {
      "type": "Feature",
      "properties": {
        "type": "plant",
        "name": "Thailand solar project XXXIII",
        "distance_km": 78.1,
        "capacity_mw": 4.4,
        "technology": null,
        "status": "(operating)",
        "source": "Global Energy Monitor"
      },
      "geometry": {
        "type": "Point",
        "coordinates": [
          99.1845703125,
          9.015302333420593
        ]
      }
    },
    {
      "type": "Feature",
      "properties": {
        "type": "plant",
        "name": "Ban Na San solar project",
        "distance_km": 78.99,
        "capacity_mw": 1.1,
        "technology": null,
        "status": "(operating)",
        "source": "Global Energy Monitor"
      },
      "geometry": {
        "type": "Point",
        "coordinates": [
          99.33013916015625,
          8.754794702435618
        ]
      }
    },
    {
      "type": "Feature",
      "properties": {
        "type": "plant",
        "name": "Thailand solar project CCXXI",
        "distance_km": 79.96,
        "capacity_mw": 1.1,
        "technology": null,
        "status": "(operating)",
        "source": "Global Energy Monitor"
      },
      "geometry": {
        "type": "Point",
        "coordinates": [
          99.5635986328125,
          8.578305369524898
        ]
      }
    },
    {
      "type": "Feature",
      "properties": {
        "type": "plant",
        "name": "Tha Phaya wind farm",
        "distance_km": 90.32,
        "capacity_mw": 20,
        "technology": null,
        "status": "(operating)",
        "source": "Global Energy Monitor"
      },
      "geometry": {
        "type": "Point",
        "coordinates": [
          99.96185302734375,
          8.428904092875385
        ]
      }
    },
    {
      "type": "Feature",
      "properties": {
        "type": "substation",
        "name": "Substation",
        "distance_km": 0.15,
        "substation_type": null,
        "voltage_kv": null,
        "source": "OSM"
      },
      "geometry": {
        "type": "Point",
        "coordinates": [
          99.85885620117188,
          9.234959792129814
        ]
      }
    },
    {
      "type": "Feature",
      "properties": {
        "type": "substation",
        "name": "Substation",
        "distance_km": 0.22,
        "substation_type": null,
        "voltage_kv": null,
        "source": "OSM"
      },
      "geometry": {
        "type": "Point",
        "coordinates": [
          99.85851287841797,
          9.233943172306866
        ]
      }
    },
    {
      "type": "Feature",
      "properties": {
        "type": "substation",
        "name": "Substation",
        "distance_km": 23.79,
        "substation_type": null,
        "voltage_kv": 115,
        "source": "OSM"
      },
      "geometry": {
        "type": "Point",
        "coordinates": [
          99.94674682617188,
          9.431112139052573
        ]
      }
    },
    {
      "type": "Feature",
      "properties": {
        "type": "substation",
        "name": "สถานีไฟฟ้าเกาะสมุย 3 (ชั่วคราว)",
        "distance_km": 28.83,
        "substation_type": "minor_distribution",
        "voltage_kv": 115,
        "source": "OSM"
      },
      "geometry": {
        "type": "Point",
        "coordinates": [
          100.02021789550781,
          9.44059510949917
        ]
      }
    },
    {
      "type": "Feature",
      "properties": {
        "type": "substation",
        "name": "Substation",
        "distance_km": 40.1,
        "substation_type": "transition",
        "voltage_kv": 115,
        "source": "OSM"
      },
      "geometry": {
        "type": "Point",
        "coordinates": [
          100.0030517578125,
          9.56689683011301
        ]
      }
    },
    {
      "type": "Feature",
      "properties": {
        "type": "substation",
        "name": "Substation",
        "distance_km": 54.49,
        "substation_type": null,
        "voltage_kv": 115,
        "source": "OSM"
      },
      "geometry": {
        "type": "Point",
        "coordinates": [
          99.99481201171875,
          9.706688223271925
        ]
      }
    },
    {
      "type": "Feature",
      "properties": {
        "type": "substation",
        "name": "สถานีไฟฟ้าแรงสูงบ้านดอน",
        "distance_km": 59.09,
        "substation_type": "transmission",
        "voltage_kv": 115,
        "source": "OSM"
      },
      "geometry": {
        "type": "Point",
        "coordinates": [
          99.34318542480469,
          9.087180443666838
        ]
      }
    },
    {
      "type": "Feature",
      "properties": {
        "type": "substation",
        "name": "สถานีไฟฟ้าแรงสูงพุนพิน",
        "distance_km": 68.24,
        "substation_type": "transmission",
        "voltage_kv": 115,
        "source": "OSM"
      },
      "geometry": {
        "type": "Point",
        "coordinates": [
          99.25735473632812,
          9.085485370816656
        ]
      }
    },
    {
      "type": "Feature",
      "properties": {
        "type": "substation",
        "name": "สถานีไฟฟ้าแรงสูงสุราษฏร์ธานี 2",
        "distance_km": 71.06,
        "substation_type": "distribution",
        "voltage_kv": 500,
        "source": "OSM"
      },
      "geometry": {
        "type": "Point",
        "coordinates": [
          99.23606872558594,
          9.06548290595046
        ]
      }
    },
    {
      "type": "Feature",
      "properties": {
        "type": "substation",
        "name": "สถานีไฟฟ้าแรงสูงสุราษฎร์ธานี1",
        "distance_km": 72.23,
        "substation_type": "transmission",
        "voltage_kv": 230,
        "source": "OSM"
      },
      "geometry": {
        "type": "Point",
        "coordinates": [
          99.2230224609375,
          9.073280609650041
        ]
      }
    },
    {
      "type": "Feature",
      "properties": {
        "type": "substation",
        "name": "สถานีไฟฟ้าแรงสูงนครศรีธรรมราช",
        "distance_km": 93.55,
        "substation_type": "transmission",
        "voltage_kv": 230,
        "source": "OSM"
      },
      "geometry": {
        "type": "Point",
        "coordinates": [
          99.96528625488281,
          8.400035796096489
        ]
      }
    },
    {
      "type": "Feature",
      "properties": {
        "type": "transmission",
        "name": "HVDC Koh Samui Connector",
        "distance_km": 23.11,
        "voltage_class": "115000",
        "source": "OSM"
      },
      "geometry": {
        "type": "LineString",
        "coordinates": [
          [
            99.8598861694336,
            9.233943172306866
          ],
          [
            99.86263275146484,
            9.237331893643997
          ],
          [
            99.86503601074219,
            9.238009634000363
          ],
          [
            99.94503021240234,
            9.423999740109721
          ],
          [
            99.94400024414062,
            9.42569318172555
          ],
          [
            99.94400024414062,
            9.42806398602825
          ],
          [
            99.94503021240234,
            9.429757407700023
          ],
          [
            99.94640350341797,
            9.429080040028737
          ],
          [
            99.94674682617188,
            9.430434774041345
          ]
        ]
      }
    },
    {
      "type": "Feature",
      "properties": {
        "type": "transmission",
        "name": "Koh Samui Export",
        "distance_km": 42.34,
        "voltage_class": "115000",
        "source": "OSM"
      },
      "geometry": {
        "type": "LineString",
        "coordinates": [
          [
            100.0030517578125,
            9.567235377842621
          ],
          [
            100.0033950805664,
            9.58856320460346
          ],
          [
            99.99481201171875,
            9.706349815426236
          ]
        ]
      }
    },
    {
      "type": "Feature",
      "properties": {
        "type": "transmission",
        "name": "intl-tx-hv-100",
        "distance_km": 59.14,
        "voltage_class": "115000",
        "source": "OSM"
      },
      "geometry": {
        "type": "LineString",
        "coordinates": [
          [
            99.34215545654297,
            9.086841429738428
          ],
          [
            99.34284210205078,
            9.086841429738428
          ]
        ]
      }
    },
    {
      "type": "Feature",
      "properties": {
        "type": "transmission",
        "name": "สุราษฎร์ธานี1-บ้านดอน",
        "distance_km": 67.42,
        "voltage_class": "115000",
        "source": "OSM"
      },
      "geometry": {
        "type": "LineString",
        "coordinates": [
          [
            99.22714233398438,
            9.07429768894589
          ],
          [
            99.2618179321289,
            9.08955353218171
          ],
          [
            99.26387786865234,
            9.089892543543115
          ],
          [
            99.33185577392578,
            9.091248585779383
          ],
          [
            99.34215545654297,
            9.086841429738428
          ]
        ]
      }
    },
    {
      "type": "Feature",
      "properties": {
        "type": "transmission",
        "name": "สุราษฎร์ธานี-พุนพิน",
        "distance_km": 68.25,
        "voltage_class": "115000",
        "source": "OSM"
      },
      "geometry": {
        "type": "LineString",
        "coordinates": [
          [
            99.22370910644531,
            9.072941582577357
          ],
          [
            99.22508239746094,
            9.07429768894589
          ],
          [
            99.23641204833984,
            9.070907413414318
          ],
          [
            99.2508316040039,
            9.061414471574082
          ],
          [
            99.26250457763672,
            9.066160973865749
          ],
          [
            99.26284790039062,
            9.071585471083239
          ],
          [
            99.2563247680664,
            9.082095201059445
          ],
          [
            99.25735473632812,
            9.085485370816656
          ]
        ]
      }
    },
    {
      "type": "Feature",
      "properties": {
        "type": "transmission",
        "name": "สุราษฎร์ธานี1-บ้านดอน",
        "distance_km": 71.76,
        "voltage_class": "115000",
        "source": "OSM"
      },
      "geometry": {
        "type": "LineString",
        "coordinates": [
          [
            99.22439575195312,
            9.072941582577357
          ],
          [
            99.22714233398438,
            9.07429768894589
          ]
        ]
      }
    },
    {
      "type": "Feature",
      "properties": {
        "type": "transmission",
        "name": "สุราษฎร์ธานี1-บ้านดอน",
        "distance_km": 71.76,
        "voltage_class": "115000",
        "source": "OSM"
      },
      "geometry": {
        "type": "LineString",
        "coordinates": [
          [
            99.22439575195312,
            9.072941582577357
          ],
          [
            99.22714233398438,
            9.07429768894589
          ]
        ]
      }
    },
    {
      "type": "Feature",
      "properties": {
        "type": "transmission",
        "name": "สุราษฎร์ธานี1-บ้านดอน",
        "distance_km": 72.09,
        "voltage_class": "115000",
        "source": "OSM"
      },
      "geometry": {
        "type": "LineString",
        "coordinates": [
          [
            99.22439575195312,
            9.072602555184318
          ],
          [
            99.22439575195312,
            9.072941582577357
          ]
        ]
      }
    },
    {
      "type": "Feature",
      "properties": {
        "type": "transmission",
        "name": "intl-tx-hv-230",
        "distance_km": 83.6,
        "voltage_class": "230000",
        "source": "OSM"
      },
      "geometry": {
        "type": "LineString",
        "coordinates": [
          [
            99.53544616699219,
            8.379996538486907
          ],
          [
            99.53441619873047,
            8.40716816360107
          ],
          [
            99.53338623046875,
            8.428564478368827
          ],
          [
            99.47124481201172,
            8.53688631358878
          ],
          [
            99.46128845214844,
            8.573213105719432
          ],
          [
            99.38610076904297,
            8.643819726268006
          ],
          [
            99.3545150756836,
            8.666560394037433
          ],
          [
            99.33666229248047,
            8.68929968614529
          ],
          [
            99.31949615478516,
            8.92746957329247
          ],
          [
            99.29237365722656,
            9.01496325173639
          ],
          [
            99.2779541015625,
            9.038359140415793
          ],
          [
            99.261474609375,
            9.053955555568365
          ],
          [
            99.23675537109375,
            9.070568384099431
          ],
          [
            99.22405242919922,
            9.074636714737068
          ],
          [
            99.2233657836914,
            9.07361963640237
          ]
        ]
      }
    },
    {
      "type": "Feature",
      "properties": {
        "type": "transmission",
        "name": "intl-tx-hv-230",
        "distance_km": 70.94,
        "voltage_class": "230000",
        "source": "OSM"
      },
      "geometry": {
        "type": "LineString",
        "coordinates": [
          [
            99.23641204833984,
            9.066500007343208
          ],
          [
            99.23675537109375,
            9.067178073337743
          ]
        ]
      }
    },
    {
      "type": "Feature",
      "properties": {
        "type": "transmission",
        "name": "intl-tx-hv-230",
        "distance_km": 70.93,
        "voltage_class": "230000",
        "source": "OSM"
      },
      "geometry": {
        "type": "LineString",
        "coordinates": [
          [
            99.23675537109375,
            9.067178073337743
          ],
          [
            99.23709869384766,
            9.066500007343208
          ]
        ]
      }
    },
    {
      "type": "Feature",
      "properties": {
        "type": "transmission",
        "name": "intl-tx-hv-230",
        "distance_km": 71.17,
        "voltage_class": "230000",
        "source": "OSM"
      },
      "geometry": {
        "type": "LineString",
        "coordinates": [
          [
            99.2340087890625,
            9.071246442408935
          ],
          [
            99.2336654663086,
            9.070568384099431
          ],
          [
            99.23675537109375,
            9.067178073337743
          ]
        ]
      }
    },
    {
      "type": "Feature",
      "properties": {
        "type": "transmission",
        "name": "intl-tx-hv-230",
        "distance_km": 70.93,
        "voltage_class": "230000",
        "source": "OSM"
      },
      "geometry": {
        "type": "LineString",
        "coordinates": [
          [
            99.23675537109375,
            9.066160973865749
          ],
          [
            99.23709869384766,
            9.066500007343208
          ]
        ]
      }
    },
    {
      "type": "Feature",
      "properties": {
        "type": "transmission",
        "name": "intl-tx-hv-230",
        "distance_km": 70.93,
        "voltage_class": "230000",
        "source": "OSM"
      },
      "geometry": {
        "type": "LineString",
        "coordinates": [
          [
            99.23675537109375,
            9.066160973865749
          ],
          [
            99.23709869384766,
            9.066500007343208
          ]
        ]
      }
    },
    {
      "type": "Feature",
      "properties": {
        "type": "transmission",
        "name": "intl-tx-hv-230",
        "distance_km": 70.94,
        "voltage_class": "230000",
        "source": "OSM"
      },
      "geometry": {
        "type": "LineString",
        "coordinates": [
          [
            99.23641204833984,
            9.066500007343208
          ],
          [
            99.23675537109375,
            9.067178073337743
          ]
        ]
      }
    },
    {
      "type": "Feature",
      "properties": {
        "type": "transmission",
        "name": "ขนอม-สุราษฎร์ธานี1",
        "distance_km": 42.74,
        "voltage_class": "230000",
        "source": "OSM"
      },
      "geometry": {
        "type": "LineString",
        "coordinates": [
          [
            99.85713958740234,
            9.232926549551365
          ],
          [
            99.84375,
            9.218354634655967
          ],
          [
            99.81868743896484,
            9.190903580619718
          ],
          [
            99.76615905761719,
            9.164806160946853
          ],
          [
            99.72221374511719,
            9.142096455894261
          ],
          [
            99.6683120727539,
            9.144130219931313
          ],
          [
            99.64736938476562,
            9.1434522998766
          ],
          [
            99.64187622070312,
            9.135656126479105
          ],
          [
            99.6236801147461,
            9.136673028339032
          ],
          [
            99.61715698242188,
            9.141079569519036
          ],
          [
            99.59243774414062,
            9.142435417373932
          ],
          [
            99.57183837890625,
            9.134978190293367
          ],
          [
            99.53441619873047,
            9.150909349452078
          ],
          [
            99.48566436767578,
            9.146841887238082
          ],
          [
            99.4815444946289,
            9.145486056167272
          ],
          [
            99.47914123535156,
            9.146163972348376
          ],
          [
            99.47639465332031,
            9.145825014419245
          ],
          [
            99.40670013427734,
            9.139384752440336
          ],
          [
            99.36378479003906,
            9.1129445626176
          ],
          [
            99.33700561523438,
            9.109893645429224
          ],
          [
            99.32670593261719,
            9.102774737363887
          ],
          [
            99.32327270507812,
            9.10141873880363
          ],
          [
            99.31983947753906,
            9.10141873880363
          ],
          [
            99.27692413330078,
            9.093960654844423
          ],
          [
            99.23229217529297,
            9.087858470561159
          ],
          [
            99.22576904296875,
            9.082095201059445
          ],
          [
            99.22199249267578,
            9.075653790188099
          ],
          [
            99.22199249267578,
            9.07429768894589
          ],
          [
            99.2230224609375,
            9.07361963640237
          ]
        ]
      }
    },
    {
      "type": "Feature",
      "properties": {
        "type": "transmission",
        "name": "ขนอม-นครศรีธรรมราช",
        "distance_km": 18.41,
        "voltage_class": "230000",
        "source": "OSM"
      },
      "geometry": {
        "type": "LineString",
        "coordinates": [
          [
            99.85748291015625,
            9.232587674647917
          ],
          [
            99.84375,
            9.21767685652658
          ],
          [
            99.81971740722656,
            9.191920324314026
          ],
          [
            99.79740142822266,
            9.123792057073985
          ],
          [
            99.81010437011719,
            9.077009886303244
          ],
          [
            99.84375,
            9.015641414786401
          ],
          [
            99.85885620117188,
            8.988853006868297
          ],
          [
            99.86881256103516,
            8.823331542602801
          ],
          [
            99.8712158203125,
            8.814171412409806
          ]
        ]
      }
    },
    {
      "type": "Feature",
      "properties": {
        "type": "transmission",
        "name": "เขื่อนรัชประภา-สุราษฎร์ธานี1",
        "distance_km": 96.77,
        "voltage_class": "230000",
        "source": "OSM"
      },
      "geometry": {
        "type": "LineString",
        "coordinates": [
          [
            98.80828857421875,
            8.971558171741549
          ],
          [
            98.81172180175781,
            8.970879926107969
          ],
          [
            98.83060455322266,
            8.955958201666093
          ],
          [
            98.84708404541016,
            8.956975611435936
          ],
          [
            98.87042999267578,
            8.986818363212706
          ],
          [
            98.93840789794922,
            9.037002898469424
          ],
          [
            98.953857421875,
            9.046157432482644
          ],
          [
            98.98750305175781,
            9.040054435667344
          ],
          [
            99.00089263916016,
            9.04107160898765
          ],
          [
            99.01840209960938,
            9.035646651417096
          ],
          [
            99.08500671386719,
            9.027169991704284
          ],
          [
            99.16706085205078,
            9.038020080407918
          ],
          [
            99.18628692626953,
            9.050565088042532
          ],
          [
            99.21272277832031,
            9.065821940068147
          ],
          [
            99.21581268310547,
            9.071246442408935
          ],
          [
            99.22164916992188,
            9.073280609650041
          ],
          [
            99.22233581542969,
            9.073280609650041
          ]
        ]
      }
    },
    {
      "type": "Feature",
      "properties": {
        "type": "transmission",
        "name": "หลังสวน-สุราษฎร์",
        "distance_km": 84.58,
        "voltage_class": "230000",
        "source": "OSM"
      },
      "geometry": {
        "type": "LineString",
        "coordinates": [
          [
            99.02114868164062,
            9.822741867037166
          ],
          [
            99.02870178222656,
            9.79567758282974
          ],
          [
            99.04895782470703,
            9.722931397589292
          ],
          [
            99.05651092529297,
            9.693151642890115
          ],
          [
            99.08226013183594,
            9.625799050476033
          ],
          [
            99.1018295288086,
            9.491053663912254
          ],
          [
            99.08638000488281,
            9.473783449286671
          ],
          [
            99.09599304199219,
            9.408419687637533
          ],
          [
            99.10697937011719,
            9.39622611334012
          ],
          [
            99.10388946533203,
            9.383693381150678
          ],
          [
            99.10594940185547,
            9.375563799072793
          ],
          [
            99.12311553955078,
            9.343721103604636
          ],
          [
            99.13169860839844,
            9.283415262959267
          ],
          [
            99.18251037597656,
            9.23224879941867
          ],
          [
            99.19349670410156,
            9.194970537877765
          ],
          [
            99.19624328613281,
            9.092604622880074
          ],
          [
            99.2226791381836,
            9.07361963640237
          ]
        ]
      }
    },
    {
      "type": "Feature",
      "properties": {
        "type": "transmission",
        "name": "intl-tx-hv-230",
        "distance_km": 79.4,
        "voltage_class": "230000",
        "source": "OSM"
      },
      "geometry": {
        "type": "LineString",
        "coordinates": [
          [
            99.04655456542969,
            9.822741867037166
          ],
          [
            99.04930114746094,
            9.810563212682439
          ],
          [
            99.05445098876953,
            9.79567758282974
          ],
          [
            99.08123016357422,
            9.721916222296159
          ],
          [
            99.11178588867188,
            9.672845748245464
          ],
          [
            99.12105560302734,
            9.625122071678618
          ],
          [
            99.11624908447266,
            9.559787249926288
          ],
          [
            99.12208557128906,
            9.500873594017335
          ],
          [
            99.1347885131836,
            9.325427173724748
          ],
          [
            99.13959503173828,
            9.298662104222686
          ],
          [
            99.12826538085938,
            9.228182271260238
          ],
          [
            99.11109924316406,
            9.138706823350475
          ],
          [
            99.09564971923828,
            9.10785968616402
          ],
          [
            99.10114288330078,
            9.098706726260488
          ],
          [
            99.10491943359375,
            9.098367723246952
          ],
          [
            99.12723541259766,
            9.097689716256241
          ],
          [
            99.1519546508789,
            9.107520691827702
          ],
          [
            99.18010711669922,
            9.104808725563032
          ],
          [
            99.2226791381836,
            9.07361963640237
          ]
        ]
      }
    },
    {
      "type": "Feature",
      "properties": {
        "type": "transmission",
        "name": "intl-tx-hv-230",
        "distance_km": 0.4,
        "voltage_class": "230000",
        "source": "OSM"
      },
      "geometry": {
        "type": "LineString",
        "coordinates": [
          [
            99.85851287841797,
            9.233943172306866
          ],
          [
            99.85748291015625,
            9.232587674647917
          ]
        ]
      }
    },
    {
      "type": "Feature",
      "properties": {
        "type": "transmission",
        "name": "intl-tx-hv-230",
        "distance_km": 0.24,
        "voltage_class": "230000",
        "source": "OSM"
      },
      "geometry": {
        "type": "LineString",
        "coordinates": [
          [
            99.85748291015625,
            9.232587674647917
          ],
          [
            99.85851287841797,
            9.233604298380854
          ]
        ]
      }
    },
    {
      "type": "Feature",
      "properties": {
        "type": "transmission",
        "name": "intl-tx-hv-230",
        "distance_km": 0.41,
        "voltage_class": "230000",
        "source": "OSM"
      },
      "geometry": {
        "type": "LineString",
        "coordinates": [
          [
            99.85816955566406,
            9.233943172306866
          ],
          [
            99.85713958740234,
            9.232926549551365
          ]
        ]
      }
    },
    {
      "type": "Feature",
      "properties": {
        "type": "transmission",
        "name": "intl-tx-hv-230",
        "distance_km": 0.25,
        "voltage_class": "230000",
        "source": "OSM"
      },
      "geometry": {
        "type": "LineString",
        "coordinates": [
          [
            99.85713958740234,
            9.232926549551365
          ],
          [
            99.85816955566406,
            9.233943172306866
          ]
        ]
      }
    },
    {
      "type": "Feature",
      "properties": {
        "type": "transmission",
        "name": "intl-tx-hv-230",
        "distance_km": 96.8,
        "voltage_class": "230000",
        "source": "OSM"
      },
      "geometry": {
        "type": "LineString",
        "coordinates": [
          [
            99.95979309082031,
            8.367768687496707
          ],
          [
            99.96082305908203,
            8.370146355269952
          ]
        ]
      }
    },
    {
      "type": "Feature",
      "properties": {
        "type": "transmission",
        "name": "intl-tx-hv-230",
        "distance_km": 96.8,
        "voltage_class": "230000",
        "source": "OSM"
      },
      "geometry": {
        "type": "LineString",
        "coordinates": [
          [
            99.95979309082031,
            8.367768687496707
          ],
          [
            99.96082305908203,
            8.370146355269952
          ]
        ]
      }
    },
    {
      "type": "Feature",
      "properties": {
        "type": "transmission",
        "name": "intl-tx-hv-230",
        "distance_km": 93.91,
        "voltage_class": "230000",
        "source": "OSM"
      },
      "geometry": {
        "type": "LineString",
        "coordinates": [
          [
            99.96082305908203,
            8.370146355269952
          ],
          [
            99.96803283691406,
            8.385091362975686
          ],
          [
            99.96700286865234,
            8.39697902702369
          ],
          [
            99.96562957763672,
            8.398677235036658
          ]
        ]
      }
    },
    {
      "type": "Feature",
      "properties": {
        "type": "transmission",
        "name": "intl-tx-hv-230",
        "distance_km": 93.47,
        "voltage_class": "230000",
        "source": "OSM"
      },
      "geometry": {
        "type": "LineString",
        "coordinates": [
          [
            99.9649429321289,
            8.401733990731856
          ],
          [
            99.9649429321289,
            8.400715074842623
          ]
        ]
      }
    },
    {
      "type": "Feature",
      "properties": {
        "type": "transmission",
        "name": "intl-tx-hv-230",
        "distance_km": 93.47,
        "voltage_class": "230000",
        "source": "OSM"
      },
      "geometry": {
        "type": "LineString",
        "coordinates": [
          [
            99.9649429321289,
            8.401733990731856
          ],
          [
            99.9649429321289,
            8.400715074842623
          ]
        ]
      }
    },
    {
      "type": "Feature",
      "properties": {
        "type": "transmission",
        "name": "ในการก่อสร้าง",
        "distance_km": 71.28,
        "voltage_class": "500000",
        "source": "OSM"
      },
      "geometry": {
        "type": "LineString",
        "coordinates": [
          [
            99.23744201660156,
            9.064804836754803
          ],
          [
            99.23778533935547,
            9.063787730560804
          ],
          [
            99.23538208007812,
            9.057685032920844
          ],
          [
            99.2398452758789,
            9.045818379818598
          ],
          [
            99.2398452758789,
            9.026152779146145
          ],
          [
            99.22611236572266,
            8.97766232539287
          ],
          [
            99.22679901123047,
            8.974610261405402
          ]
        ]
      }
    },
    {
      "type": "Feature",
      "properties": {
        "type": "transmission",
        "name": "intl-tx-hv-500",
        "distance_km": 71.26,
        "voltage_class": "500000",
        "source": "OSM"
      },
      "geometry": {
        "type": "LineString",
        "coordinates": [
          [
            99.23538208007812,
            9.06446580167686
          ],
          [
            99.23469543457031,
            9.063787730560804
          ]
        ]
      }
    },
    {
      "type": "Feature",
      "properties": {
        "type": "transmission",
        "name": "intl-tx-hv-500",
        "distance_km": 70.94,
        "voltage_class": "500000",
        "source": "OSM"
      },
      "geometry": {
        "type": "LineString",
        "coordinates": [
          [
            99.23641204833984,
            9.06446580167686
          ],
          [
            99.23744201660156,
            9.064804836754803
          ]
        ]
      }
    },
    {
      "type": "Feature",
      "properties": {
        "type": "transmission",
        "name": "intl-tx-hv-500",
        "distance_km": 70.94,
        "voltage_class": "500000",
        "source": "OSM"
      },
      "geometry": {
        "type": "LineString",
        "coordinates": [
          [
            99.23641204833984,
            9.064804836754803
          ],
          [
            99.23744201660156,
            9.064804836754803
          ]
        ]
      }
    },
    {
      "type": "Feature",
      "properties": {
        "type": "transmission",
        "name": "intl-tx-hv-500",
        "distance_km": 71.26,
        "voltage_class": "500000",
        "source": "OSM"
      },
      "geometry": {
        "type": "LineString",
        "coordinates": [
          [
            99.23572540283203,
            9.06446580167686
          ],
          [
            99.23469543457031,
            9.063787730560804
          ]
        ]
      }
    },
    {
      "type": "Feature",
      "properties": {
        "type": "transmission",
        "name": "intl-tx-hv-500",
        "distance_km": 71.31,
        "voltage_class": "500000",
        "source": "OSM"
      },
      "geometry": {
        "type": "LineString",
        "coordinates": [
          [
            99.23538208007812,
            9.065143871512689
          ],
          [
            99.2340087890625,
            9.06446580167686
          ]
        ]
      }
    },
    {
      "type": "Feature",
      "properties": {
        "type": "transmission",
        "name": "intl-tx-hv-500",
        "distance_km": 71.31,
        "voltage_class": "500000",
        "source": "OSM"
      },
      "geometry": {
        "type": "LineString",
        "coordinates": [
          [
            99.23538208007812,
            9.064804836754803
          ],
          [
            99.2340087890625,
            9.06446580167686
          ]
        ]
      }
    },
    {
      "type": "Feature",
      "properties": {
        "type": "transmission",
        "name": "สุราษฎร์ธานี2-ภูเก็ต3",
        "distance_km": 75.69,
        "voltage_class": "500000",
        "source": "OSM"
      },
      "geometry": {
        "type": "LineString",
        "coordinates": [
          [
            99.23469543457031,
            9.063787730560804
          ],
          [
            99.217529296875,
            9.044462165968255
          ],
          [
            99.20894622802734,
            9.011572417385977
          ],
          [
            99.20207977294922,
            9.000382438291041
          ],
          [
            99.20207977294922,
            8.996991467173373
          ]
        ]
      }
    },
    {
      "type": "Feature",
      "properties": {
        "type": "transmission",
        "name": "intl-tx-hv-500",
        "distance_km": 102.32,
        "voltage_class": "500000",
        "source": "OSM"
      },
      "geometry": {
        "type": "LineString",
        "coordinates": [
          [
            99.20207977294922,
            8.996991467173373
          ],
          [
            99.20207977294922,
            8.993939565998929
          ],
          [
            99.19486999511719,
            8.988853006868297
          ],
          [
            99.1794204711914,
            8.96308001024643
          ],
          [
            99.15950775146484,
            8.91966872715659
          ],
          [
            99.1519546508789,
            8.91424195325952
          ],
          [
            99.14199829101562,
            8.909832640101754
          ],
          [
            99.11968231201172,
            8.885750068700204
          ],
          [
            99.09255981445312,
            8.868111124818071
          ],
          [
            99.08500671386719,
            8.853863666895137
          ],
          [
            99.06646728515625,
            8.791100449231735
          ],
          [
            99.05204772949219,
            8.777189321019321
          ],
          [
            99.0362548828125,
            8.767010116265325
          ],
          [
            99.02355194091797,
            8.752758761122237
          ],
          [
            99.02183532714844,
            8.74936550084881
          ],
          [
            99.00775909423828,
            8.733756105406968
          ],
          [
            98.98853302001953,
            8.730023327051398
          ],
          [
            98.97789001464844,
            8.703553464735279
          ],
          [
            98.96244049072266,
            8.692014733400782
          ],
          [
            98.96106719970703,
            8.686924003666917
          ],
          [
            98.93840789794922,
            8.68047564679972
          ],
          [
            98.91780853271484,
            8.661469319152857
          ],
          [
            98.90270233154297,
            8.658754051034393
          ]
        ]
      }
    },
    {
      "type": "Feature",
      "properties": {
        "type": "transmission",
        "name": "บางสะพาน2-สุราษฎธานี2",
        "distance_km": 89.29,
        "voltage_class": "500000",
        "source": "OSM"
      },
      "geometry": {
        "type": "LineString",
        "coordinates": [
          [
            99.03007507324219,
            9.822741867037166
          ],
          [
            99.03144836425781,
            9.81631429972147
          ],
          [
            99.0468978881836,
            9.80921000122288
          ],
          [
            99.04895782470703,
            9.79567758282974
          ],
          [
            99.05067443847656,
            9.78417459327747
          ],
          [
            99.04586791992188,
            9.778422949125996
          ],
          [
            99.04861450195312,
            9.765904320896553
          ],
          [
            99.04655456542969,
            9.755077019501556
          ],
          [
            99.04964447021484,
            9.748309777470084
          ],
          [
            99.05342102050781,
            9.743910996505761
          ],
          [
            99.05685424804688,
            9.730714305756948
          ],
          [
            99.05513763427734,
            9.726992067938937
          ],
          [
            99.0585708618164,
            9.72462334956218
          ],
          [
            99.06475067138672,
            9.702965718167647
          ],
          [
            99.06990051269531,
            9.680291385511268
          ],
          [
            99.0578842163086,
            9.662692340761396
          ],
          [
            99.05685424804688,
            9.662015436032846
          ],
          [
            99.05479431152344,
            9.657953979072872
          ],
          [
            99.04895782470703,
            9.649153987606837
          ],
          [
            99.04861450195312,
            9.628845438274993
          ],
          [
            99.0523910522461,
            9.604473567155907
          ],
          [
            99.05960083007812,
            9.593641061036479
          ],
          [
            99.06200408935547,
            9.563511334275333
          ],
          [
            99.06749725341797,
            9.5513232702735
          ],
          [
            99.06612396240234,
            9.525591480908417
          ],
          [
            99.06990051269531,
            9.516788054874098
          ],
          [
            99.0633773803711,
            9.468026517954357
          ],
          [
            99.06234741210938,
            9.456512365943041
          ],
          [
            99.0640640258789,
            9.432466865084393
          ],
          [
            99.06028747558594,
            9.381999733931806
          ],
          [
            99.06543731689453,
            9.339655868842186
          ],
          [
            99.06990051269531,
            9.323055668100295
          ],
          [
            99.06612396240234,
            9.302389008868602
          ],
          [
            99.06543731689453,
            9.277994003958412
          ],
          [
            99.0582275390625,
            9.251903023825918
          ],
          [
            99.06578063964844,
            9.218354634655967
          ],
          [
            99.06063079833984,
            9.209882314542838
          ],
          [
            99.04998779296875,
            9.187853332022016
          ],
          [
            99.05033111572266,
            9.174635284692599
          ],
          [
            99.05101776123047,
            9.17192382946864
          ],
          [
            99.05067443847656,
            9.162772515162501
          ],
          [
            99.041748046875,
            9.14751980083632
          ],
          [
            99.05891418457031,
            9.103113736200555
          ],
          [
            99.05994415283203,
            9.102096738726459
          ],
          [
            99.06028747558594,
            9.099723733373708
          ],
          [
            99.06269073486328,
            9.092943631352696
          ],
          [
            99.07779693603516,
            9.080061083812637
          ],
          [
            99.09015655517578,
            9.05293841866694
          ],
          [
            99.10045623779297,
            9.046157432482644
          ],
          [
            99.10560607910156,
            9.024796491272795
          ],
          [
            99.10869598388672,
            9.02411834542383
          ],
          [
            99.1292953491211,
            9.030560679508554
          ],
          [
            99.15607452392578,
            9.031577879631769
          ],
          [
            99.16603088378906,
            9.034629462777502
          ],
          [
            99.17255401611328,
            9.034968525976424
          ],
          [
            99.20997619628906,
            9.042427835611676
          ],
          [
            99.2281723022461,
            9.062092547170252
          ],
          [
            99.2340087890625,
            9.06446580167686
          ]
        ]
      }
    },
    {
      "type": "Feature",
      "properties": {
        "type": "transmission",
        "name": "intl-tx-hv-230",
        "distance_km": 93.97,
        "voltage_class": "230000",
        "source": "OSM"
      },
      "geometry": {
        "type": "LineString",
        "coordinates": [
          [
            99.96116638183594,
            8.379996538486907
          ],
          [
            99.96528625488281,
            8.396299741738005
          ],
          [
            99.96562957763672,
            8.398677235036658
          ]
        ]
      }
    },
    {
      "type": "Feature",
      "properties": {
        "type": "transmission",
        "name": "นครศรีธรรมราช-เชียรใหญ่",
        "distance_km": 95.25,
        "voltage_class": "115000",
        "source": "OSM"
      },
      "geometry": {
        "type": "LineString",
        "coordinates": [
          [
            99.96562957763672,
            8.39935651616112
          ],
          [
            99.96734619140625,
            8.39697902702369
          ],
          [
            99.96837615966797,
            8.385091362975686
          ],
          [
            99.96597290039062,
            8.379996538486907
          ]
        ]
      }
    }
  ]
}