{
"type": "FeatureCollection",
"name": "thailand_hv_grid_sample",
"features": [
{ "type": "Feature", "properties": { "osmid": "sub_bangkok_north", "power": "substation", "voltage": "500000;230000", "operator": "การไฟฟ้าฝ่ายผลิตแห่งประเทศไทย", "name": "Bangkok North", "substation": "transmission", "cable": null, "line_type": null, "frequency": null, "ref": null }, "geometry": { "type": "Point", "coordinates": [ 100.6, 13.95 ] } },
{ "type": "Feature", "properties": { "osmid": "sub_bangkok_south", "power": "substation", "voltage": "500000;230000", "operator": "การไฟฟ้าฝ่ายผลิตแห่งประเทศไทย", "name": "Bangkok South", "substation": "transmission", "cable": null, "line_type": null, "frequency": null, "ref": null }, "geometry": { "type": "Point", "coordinates": [ 100.55, 13.55 ] } },
{ "type": "Feature", "properties": { "osmid": "sub_nonthaburi", "power": "substation", "voltage": "230000;115000", "operator": "การไฟฟ้าฝ่ายผลิตแห่งประเทศไทย", "name": "Nonthaburi", "substation": "transmission", "cable": null, "line_type": null, "frequency": null, "ref": null }, "geometry": { "type": "Point", "coordinates": [ 100.52, 13.86 ] } },
{ "type": "Feature", "properties": { "osmid": "sub_samut_prakan", "power": "substation", "voltage": "230000;115000", "operator": "การไฟฟ้าฝ่ายผลิตแห่งประเทศไทย", "name": "Samut Prakan", "substation": "transmission", "cable": null, "line_type": null, "frequency": null, "ref": null }, "geometry": { "type": "Point", "coordinates": [ 100.7, 13.6 ] } },
{ "type": "Feature", "properties": { "osmid": "sub_pathum_thani", "power": "substation", "voltage": "230000;115000", "operator": "การไฟฟ้าฝ่ายผลิตแห่งประเทศไทย", "name": "Pathum Thani", "substation": "transmission", "cable": null, "line_type": null, "frequency": null, "ref": null }, "geometry": { "type": "Point", "coordinates": [ 100.53, 14.02 ] } },
{ "type": "Feature", "properties": { "osmid": "sub_chonburi_east", "power": "substation", "voltage": "500000;230000", "operator": "การไฟฟ้าฝ่ายผลิตแห่งประเทศไทย", "name": "Chonburi East", "substation": "transmission", "cable": null, "line_type": null, "frequency": null, "ref": null }, "geometry": { "type": "Point", "coordinates": [ 100.98, 13.36 ] } },
{ "type": "Feature", "properties": { "osmid": "sub_ayutthaya_north", "power": "substation", "voltage": "500000;230000", "operator": "การไฟฟ้าฝ่ายผลิตแห่งประเทศไทย", "name": "Ayutthaya North", "substation": "transmission", "cable": null, "line_type": null, "frequency": null, "ref": null }, "geometry": { "type": "Point", "coordinates": [ 100.57, 14.35 ] } },
{ "type": "Feature", "properties": { "osmid": "sub_saraburi", "power": "substation", "voltage": "230000;115000", "operator": "การไฟฟ้าฝ่ายผลิตแห่งประเทศไทย", "name": "Saraburi", "substation": "transmission", "cable": null, "line_type": null, "frequency": null, "ref": null }, "geometry": { "type": "Point", "coordinates": [ 100.92, 14.53 ] } },
{ "type": "Feature", "properties": { "osmid": "line_0", "power": "line", "voltage": "500000", "operator": "การไฟฟ้าฝ่ายผลิตแห่งประเทศไทย", "name": null, "substation": null, "cable": "no", "line_type": "overhead", "frequency": "50", "ref": "EGAT-500000-000" }, "geometry": { "type": "LineString", "coordinates": [ [ 100.595522400376467, 13.946084163547297 ], [ 100.594467117992679, 13.881038011215905 ], [ 100.579386294427167, 13.787207191975822 ], [ 100.565981884307433, 13.706703731256203 ], [ 100.55491593095293, 13.626843881473771 ], [ 100.549227206103737, 13.551437491191578 ] ] } },
{ "type": "Feature", "properties": { "osmid": "line_1", "power": "line", "voltage": "500000", "operator": "การไฟฟ้าฝ่ายผลิตแห่งประเทศไทย", "name": null, "substation": null, "cable": "no", "line_type": "overhead", "frequency": "50", "ref": "EGAT-500000-001" }, "geometry": { "type": "LineString", "coordinates": [ [ 100.601088214866991, 13.955586323589817 ], [ 100.593394880450802, 14.007947410259133 ], [ 100.597194395162674, 14.057075013956327 ], [ 100.581129007372766, 14.12781979108491 ], [ 100.57903867537577, 14.179577428984125 ], [ 100.578823249595061, 14.230037802865541 ], [ 100.577273446977443, 14.295111129873 ], [ 100.572060354679138, 14.350880351907039 ] ] } },
{ "type": "Feature", "properties": { "osmid": "line_2", "power": "line", "voltage": "500000", "operator": "การไฟฟ้าฝ่ายผลิตแห่งประเทศไทย", "name": null, "substation": null, "cable": "no", "line_type": "overhead", "frequency": "50", "ref": "EGAT-500000-002" }, "geometry": { "type": "LineString", "coordinates": [ [ 100.553019770696096, 13.549940234890361 ], [ 100.629087312389117, 13.514122068625426 ], [ 100.725320737887472, 13.4668663005382 ], [ 100.816665245310176, 13.426137153005868 ], [ 100.889035820840135, 13.396484989473082 ], [ 100.976543198912211, 13.362987933642493 ] ] } },
{ "type": "Feature", "properties": { "osmid": "line_3", "power": "line", "voltage": "230000", "operator": "การไฟฟ้าฝ่ายผลิตแห่งประเทศไทย", "name": null, "substation": null, "cable": "no", "line_type": "overhead", "frequency": "50", "ref": "EGAT-230000-003" }, "geometry": { "type": "LineString", "coordinates": [ [ 100.60502314897029, 13.947583213416147 ], [ 100.585521991265182, 13.932244066565005 ], [ 100.584819661876566, 13.928755153286167 ], [ 100.565827677693648, 13.909189035069012 ], [ 100.556460099260377, 13.894074021038609 ], [ 100.547246847006079, 13.879377364466215 ], [ 100.537201596397367, 13.869120216951247 ], [ 100.521984640399722, 13.857460527698857 ] ] } },
{ "type": "Feature", "properties": { "osmid": "line_4", "power": "line", "voltage": "230000", "operator": "การไฟฟ้าฝ่ายผลิตแห่งประเทศไทย", "name": null, "substation": null, "cable": "no", "line_type": "overhead", "frequency": "50", "ref": "EGAT-230000-004" }, "geometry": { "type": "LineString", "coordinates": [ [ 100.592582375350545, 13.959461303889183 ], [ 100.584048093960703, 13.974653149982126 ], [ 100.565879843347759, 13.981645110868172 ], [ 100.545352977733089, 14.008121126493077 ], [ 100.519550127818093, 14.021760714716253 ] ] } },
{ "type": "Feature", "properties": { "osmid": "line_5", "power": "line", "voltage": "230000", "operator": "การไฟฟ้าฝ่ายผลิตแห่งประเทศไทย", "name": null, "substation": null, "cable": "no", "line_type": "overhead", "frequency": "50", "ref": "EGAT-230000-005" }, "geometry": { "type": "LineString", "coordinates": [ [ 100.548802065633978, 13.547292479153761 ], [ 100.57837289642471, 13.559827956668624 ], [ 100.6210607514099, 13.56326848755328 ], [ 100.636387773422527, 13.569608386659951 ], [ 100.669044130088196, 13.599852902350202 ], [ 100.705737669332436, 13.606582161715673 ] ] } },
{ "type": "Feature", "properties": { "osmid": "line_6", "power": "line", "voltage": "230000", "operator": "การไฟฟ้าฝ่ายผลิตแห่งประเทศไทย", "name": null, "substation": null, "cable": "no", "line_type": "overhead", "frequency": "50", "ref": "EGAT-230000-006" }, "geometry": { "type": "LineString", "coordinates": [ [ 100.574951989088191, 14.344466448733002 ], [ 100.612740203053065, 14.375903942997095 ], [ 100.673338826515618, 14.404912507858091 ], [ 100.720156986447634, 14.428223560779385 ], [ 100.76549391561602, 14.447580629125428 ], [ 100.817495177257058, 14.482071574170698 ], [ 100.881031646601073, 14.504399485214666 ], [ 100.920094724358435, 14.520935199576268 ] ] } },
{ "type": "Feature", "properties": { "osmid": "line_7", "power": "line", "voltage": "230000", "operator": "การไฟฟ้าฝ่ายผลิตแห่งประเทศไทย", "name": null, "substation": null, "cable": "no", "line_type": "overhead", "frequency": "50", "ref": "EGAT-230000-007" }, "geometry": { "type": "LineString", "coordinates": [ [ 100.980094102231774, 13.362807125715259 ], [ 100.948710561281587, 13.398968274593221 ], [ 100.901830005384468, 13.434995729855169 ], [ 100.860939207846869, 13.456631213054562 ], [ 100.825064215622291, 13.499916278700633 ], [ 100.779858595251966, 13.537286655403665 ], [ 100.743397443112627, 13.563699020605808 ], [ 100.700164939994863, 13.596325233729443 ] ] } },
{ "type": "Feature", "properties": { "osmid": "line_8", "power": "line", "voltage": "115000", "operator": "การไฟฟ้าฝ่ายผลิตแห่งประเทศไทย", "name": null, "substation": null, "cable": "no", "line_type": "overhead", "frequency": "50", "ref": "EGAT-115000-008" }, "geometry": { "type": "LineString", "coordinates": [ [ 100.523673714082364, 13.857432497772182 ], [ 100.51042124706855, 13.902689122089145 ], [ 100.517066080679911, 13.941074788660558 ], [ 100.534841571002175, 13.973574718168379 ], [ 100.529725455698014, 14.027927470324903 ] ] } },
{ "type": "Feature", "properties": { "osmid": "line_9", "power": "line", "voltage": "115000", "operator": "การไฟฟ้าฝ่ายผลิตแห่งประเทศไทย", "name": null, "substation": null, "cable": "underground", "line_type": "underground", "frequency": "50", "ref": "EGAT-115000-009" }, "geometry": { "type": "LineString", "coordinates": [ [ 100.696062409894694, 13.60271103582623 ], [ 100.669594009086964, 13.593734272088936 ], [ 100.652376684828553, 13.580672185490533 ], [ 100.617582505073102, 13.570142412817361 ], [ 100.605359637161911, 13.558010213704637 ], [ 100.570816887747242, 13.568926430618635 ], [ 100.540138032658732, 13.54932306791795 ] ] } }
]
}
