{
  "type": "FeatureCollection",
  "features": [
    {
      "type": "Feature",
      "properties": {
        "type": "spotlight_boundary",
        "name": "Substation",
        "radius_km": 250
      },
      "geometry": {
        "type": "Polygon",
        "coordinates": [
          [
            [
              99.9946327455317,
              11.954796447082739
            ],
            [
              100.21982432458498,
              11.943891675840243
            ],
            [
              100.4427967237528,
              11.911284998514141
            ],
            [
              100.66135444201899,
              11.857298160884225
            ],
            [
              100.87334898614806,
              11.782463546294482
            ],
            [
              101.07670151087184,
              11.687518450143195
            ],
            [
              101.26942445323968,
              11.573397189608482
            ],
            [
              101.44964187475419,
              11.441221168606361
            ],
            [
              101.61560826280729,
              11.292287044922682
            ],
            [
              101.76572558570479,
              11.128053168613855
            ],
            [
              101.89855844077736,
              10.950124477776974
            ],
            [
              102.01284718031063,
              10.760236049608546
            ],
            [
              102.10751894310458,
              10.56023551155727
            ],
            [
              102.18169655856907,
              10.352064519834297
            ],
            [
              102.23470532404494,
              10.137739511265492
            ],
            [
              102.26607768370201,
              9.91933193026029
            ],
            [
              102.27555585864603,
              9.698948126377722
            ],
            [
              102.26309249300722,
              9.478709110407442
            ],
            [
              102.22884939045038,
              9.260730348775892
            ],
            [
              102.17319442073914,
              9.047101768019171
            ],
            [
              102.096696677905,
              8.83986813344541
            ],
            [
              102.00011997151233,
              8.64100995916599
            ],
            [
              101.88441473173653,
              8.452425100444682
            ],
            [
              101.75070840862145,
              8.27591117366717
            ],
            [
              101.60029444687513,
              8.113148943899926
            ],
            [
              101.43461992054449,
              7.9656868146160855
            ],
            [
              101.25527191721956,
              7.83492654828992
            ],
            [
              101.06396276906796,
              7.722110339765033
            ],
            [
              100.86251423771145,
              7.6283093561878745
            ],
            [
              100.65284077118027,
              7.554413847549968
            ],
            [
              100.43693196317439,
              7.501124920295694
            ],
            [
              100.21683435676059,
              7.468948052960687
            ],
            [
              99.9946327455317,
              7.458188417489086
            ],
            [
              99.7724311343028,
              7.468948052960687
            ],
            [
              99.552333527889,
              7.501124920295694
            ],
            [
              99.33642471988313,
              7.554413847549968
            ],
            [
              99.12675125335194,
              7.6283093561878745
            ],
            [
              98.92530272199542,
              7.722110339765033
            ],
            [
              98.73399357384383,
              7.83492654828992
            ],
            [
              98.5546455705189,
              7.9656868146160855
            ],
            [
              98.38897104418827,
              8.113148943899926
            ],
            [
              98.23855708244194,
              8.27591117366717
            ],
            [
              98.10485075932687,
              8.452425100444682
            ],
            [
              97.98914551955106,
              8.64100995916599
            ],
            [
              97.89256881315839,
              8.839868133445409
            ],
            [
              97.81607107032426,
              9.047101768019171
            ],
            [
              97.76041610061301,
              9.260730348775892
            ],
            [
              97.72617299805617,
              9.478709110407442
            ],
            [
              97.71370963241736,
              9.698948126377722
            ],
            [
              97.72318780736138,
              9.919331930260288
            ],
            [
              97.75456016701845,
              10.137739511265492
            ],
            [
              97.80756893249432,
              10.352064519834297
            ],
            [
              97.88174654795881,
              10.56023551155727
            ],
            [
              97.97641831075276,
              10.760236049608546
            ],
            [
              98.09070705028603,
              10.950124477776974
            ],
            [
              98.2235399053586,
              11.128053168613855
            ],
            [
              98.3736572282561,
              11.292287044922682
            ],
            [
              98.5396236163092,
              11.441221168606361
            ],
            [
              98.71984103782371,
              11.573397189608482
            ],
            [
              98.91256398019155,
              11.687518450143195
            ],
            [
              99.11591650491532,
              11.782463546294482
            ],
            [
              99.3279110490444,
              11.857298160884225
            ],
            [
              99.54646876731059,
              11.911284998514141
            ],
            [
              99.76944116647842,
              11.943891675840243
            ],
            [
              99.9946327455317,
              11.954796447082739
            ]
          ]
        ]
      }
    },
    {
      "type": "Feature",
      "properties": {
        "type": "spotlight_center",
        "name": "Substation",
        "radius_km": 250,
        "generation_mw": 1011.4
      },
      "geometry": {
        "type": "Point",
        "coordinates": [
          99.9946327455317,
          9.706492432285913
        ]
      }
    },
    {
      "type": "Feature",
      "properties": {
        "type": "plant",
        "name": "Khanom power station",
        "distance_km": 54.46,
        "capacity_mw": 970,
        "technology": null,
        "status": "(operating)",
        "source": "Global Energy Monitor"
      },
      "geometry": {
        "type": "Point",
        "coordinates": [
          99.8602294921875,
          9.234959792129814
        ]
      }
    },
    {
      "type": "Feature",
      "properties": {
        "type": "plant",
        "name": "TPG power station",
        "distance_km": 94.4,
        "capacity_mw": 10,
        "technology": null,
        "status": "(operating)",
        "source": "Global Energy Monitor"
      },
      "geometry": {
        "type": "Point",
        "coordinates": [
          99.3438720703125,
          9.150909349452078
        ]
      }
    },
    {
      "type": "Feature",
      "properties": {
        "type": "plant",
        "name": "TGE power station",
        "distance_km": 95.15,
        "capacity_mw": 10,
        "technology": null,
        "status": "(operating)",
        "source": "Global Energy Monitor"
      },
      "geometry": {
        "type": "Point",
        "coordinates": [
          99.349365234375,
          9.134639221716782
        ]
      }
    },
    {
      "type": "Feature",
      "properties": {
        "type": "plant",
        "name": "TBP power station",
        "distance_km": 95.29,
        "capacity_mw": 10,
        "technology": null,
        "status": "(operating)",
        "source": "Global Energy Monitor"
      },
      "geometry": {
        "type": "Point",
        "coordinates": [
          99.33563232421875,
          9.148197713142977
        ]
      }
    },
    {
      "type": "Feature",
      "properties": {
        "type": "plant",
        "name": "Thachang power station",
        "distance_km": 96.33,
        "capacity_mw": 10,
        "technology": null,
        "status": "(operating)",
        "source": "Global Energy Monitor"
      },
      "geometry": {
        "type": "Point",
        "coordinates": [
          99.33013916015625,
          9.140062680239737
        ]
      }
    },
    {
      "type": "Feature",
      "properties": {
        "type": "plant",
        "name": "Thailand solar project CXXXVIII",
        "distance_km": 106.39,
        "capacity_mw": 1.4,
        "technology": null,
        "status": "(operating)",
        "source": "Global Energy Monitor"
      },
      "geometry": {
        "type": "Point",
        "coordinates": [
          99.06646728515625,
          9.987785857426275
        ]
      }
    },
    {
      "type": "Feature",
      "properties": {
        "type": "substation",
        "name": "Substation",
        "distance_km": 0.02,
        "substation_type": null,
        "voltage_kv": 115,
        "source": "OSM"
      },
      "geometry": {
        "type": "Point",
        "coordinates": [
          99.99481201171875,
          9.706519019391806
        ]
      }
    },
    {
      "type": "Feature",
      "properties": {
        "type": "substation",
        "name": "Substation",
        "distance_km": 15.53,
        "substation_type": "transition",
        "voltage_kv": 115,
        "source": "OSM"
      },
      "geometry": {
        "type": "Point",
        "coordinates": [
          100.0030517578125,
          9.567066104019958
        ]
      }
    },
    {
      "type": "Feature",
      "properties": {
        "type": "substation",
        "name": "สถานีไฟฟ้าเกาะสมุย 3 (ชั่วคราว)",
        "distance_km": 29.7,
        "substation_type": "minor_distribution",
        "voltage_kv": 115,
        "source": "OSM"
      },
      "geometry": {
        "type": "Point",
        "coordinates": [
          100.02021789550781,
          9.44059510949917
        ]
      }
    },
    {
      "type": "Feature",
      "properties": {
        "type": "substation",
        "name": "Substation",
        "distance_km": 31.08,
        "substation_type": null,
        "voltage_kv": 115,
        "source": "OSM"
      },
      "geometry": {
        "type": "Point",
        "coordinates": [
          99.94691848754883,
          9.430942797924459
        ]
      }
    },
    {
      "type": "Feature",
      "properties": {
        "type": "substation",
        "name": "Substation",
        "distance_km": 54.51,
        "substation_type": null,
        "voltage_kv": null,
        "source": "OSM"
      },
      "geometry": {
        "type": "Point",
        "coordinates": [
          99.85885620117188,
          9.234959792129814
        ]
      }
    },
    {
      "type": "Feature",
      "properties": {
        "type": "substation",
        "name": "Substation",
        "distance_km": 54.63,
        "substation_type": null,
        "voltage_kv": null,
        "source": "OSM"
      },
      "geometry": {
        "type": "Point",
        "coordinates": [
          99.85834121704102,
          9.233943172306866
        ]
      }
    },
    {
      "type": "Feature",
      "properties": {
        "type": "substation",
        "name": "สถานีไฟฟ้าหลังสวน",
        "distance_km": 107.43,
        "substation_type": "distribution",
        "voltage_kv": null,
        "source": "OSM"
      },
      "geometry": {
        "type": "Point",
        "coordinates": [
          99.06560897827148,
          10.015679528442803
        ]
      }
    },
    {
      "type": "Feature",
      "properties": {
        "type": "substation",
        "name": "สถานีไฟฟ้าแรงสูงหลังสวน",
        "distance_km": 107.66,
        "substation_type": "transmission",
        "voltage_kv": 230,
        "source": "OSM"
      },
      "geometry": {
        "type": "Point",
        "coordinates": [
          99.0633773803711,
          10.015679528442803
        ]
      }
    },
    {
      "type": "Feature",
      "properties": {
        "type": "substation",
        "name": "สถานีไฟฟ้าแรงสูงชุมพร",
        "distance_km": 130.53,
        "substation_type": "transmission",
        "voltage_kv": 230,
        "source": "OSM"
      },
      "geometry": {
        "type": "Point",
        "coordinates": [
          99.11710739135742,
          10.501315070730854
        ]
      }
    },
    {
      "type": "Feature",
      "properties": {
        "type": "substation",
        "name": "สถานีไฟฟ้าระนอง",
        "distance_km": 153.48,
        "substation_type": "distribution",
        "voltage_kv": null,
        "source": "OSM"
      },
      "geometry": {
        "type": "Point",
        "coordinates": [
          98.59474182128906,
          9.7435726263369
        ]
      }
    },
    {
      "type": "Feature",
      "properties": {
        "type": "substation",
        "name": "สถานีไฟฟ้าแรงสูงระนอง",
        "distance_km": 153.5,
        "substation_type": "transmission",
        "voltage_kv": 115,
        "source": "OSM"
      },
      "geometry": {
        "type": "Point",
        "coordinates": [
          98.59457015991211,
          9.742726699413495
        ]
      }
    },
    {
      "type": "Feature",
      "properties": {
        "type": "transmission",
        "name": "HVDC Koh Samui Connector",
        "distance_km": 31.57,
        "voltage_class": "115000",
        "source": "OSM"
      },
      "geometry": {
        "type": "LineString",
        "coordinates": [
          [
            99.85971450805664,
            9.233773735384588
          ],
          [
            99.86263275146484,
            9.237331893643997
          ],
          [
            99.86486434936523,
            9.238179068885728
          ],
          [
            99.9452018737793,
            9.423830395491194
          ],
          [
            99.94400024414062,
            9.425862525430148
          ],
          [
            99.94382858276367,
            9.42704792903578
          ],
          [
            99.94417190551758,
            9.42806398602825
          ],
          [
            99.94503021240234,
            9.429757407700023
          ],
          [
            99.94623184204102,
            9.429249382071248
          ],
          [
            99.94674682617188,
            9.430265432580725
          ]
        ]
      }
    },
    {
      "type": "Feature",
      "properties": {
        "type": "transmission",
        "name": "Koh Samui Export",
        "distance_km": 13.15,
        "voltage_class": "115000",
        "source": "OSM"
      },
      "geometry": {
        "type": "LineString",
        "coordinates": [
          [
            100.00322341918945,
            9.567235377842621
          ],
          [
            100.0033950805664,
            9.56909738432833
          ],
          [
            100.00356674194336,
            9.58856320460346
          ],
          [
            99.99481201171875,
            9.706519019391806
          ]
        ]
      }
    },
    {
      "type": "Feature",
      "properties": {
        "type": "transmission",
        "name": "intl-tx-hv-100",
        "distance_km": 107.64,
        "voltage_class": "115000",
        "source": "OSM"
      },
      "geometry": {
        "type": "LineString",
        "coordinates": [
          [
            99.06440734863281,
            10.016186663919896
          ],
          [
            99.063720703125,
            10.016186663919896
          ]
        ]
      }
    },
    {
      "type": "Feature",
      "properties": {
        "type": "transmission",
        "name": "intl-tx-hv-100",
        "distance_km": 109.04,
        "voltage_class": "115000",
        "source": "OSM"
      },
      "geometry": {
        "type": "LineString",
        "coordinates": [
          [
            99.0530776977539,
            10.01686284332277
          ],
          [
            99.05050277709961,
            10.01686284332277
          ]
        ]
      }
    },
    {
      "type": "Feature",
      "properties": {
        "type": "transmission",
        "name": "หลังสวน-ระนอง",
        "distance_km": 115.19,
        "voltage_class": "115000",
        "source": "OSM"
      },
      "geometry": {
        "type": "LineString",
        "coordinates": [
          [
            99.05050277709961,
            10.01686284332277
          ],
          [
            99.04844284057617,
            10.01686284332277
          ],
          [
            99.02698516845703,
            10.004691398505358
          ],
          [
            99.0249252319336,
            10.004860449474961
          ],
          [
            99.02114868164062,
            10.001310360636921
          ],
          [
            98.99368286132812,
            9.985588072530774
          ],
          [
            98.98836135864258,
            9.974767992076153
          ],
          [
            98.98870468139648,
            9.968681538866562
          ],
          [
            98.98063659667969,
            9.96293311759716
          ],
          [
            98.97668838500977,
            9.958706272615132
          ],
          [
            98.97531509399414,
            9.956170139343499
          ],
          [
            98.97428512573242,
            9.953803063844063
          ],
          [
            98.96913528442383,
            9.934696755064763
          ],
          [
            98.93257141113281,
            9.900708440190257
          ],
          [
            98.88690948486328,
            9.90578154673591
          ],
          [
            98.82734298706055,
            9.86417976097917
          ],
          [
            98.82390975952148,
            9.852510023143068
          ],
          [
            98.82099151611328,
            9.844560834893315
          ],
          [
            98.79558563232422,
            9.82054297647413
          ],
          [
            98.79386901855469,
            9.814961111754684
          ],
          [
            98.77738952636719,
            9.805488641218943
          ],
          [
            98.76863479614258,
            9.79567758282974
          ],
          [
            98.76331329345703,
            9.789926137864128
          ],
          [
            98.75936508178711,
            9.786712051695332
          ],
          [
            98.75696182250977,
            9.782144612590102
          ]
        ]
      }
    },
    {
      "type": "Feature",
      "properties": {
        "type": "transmission",
        "name": "หลังสวน-สุราษฎร์",
        "distance_km": 111.78,
        "voltage_class": "230000",
        "source": "OSM"
      },
      "geometry": {
        "type": "LineString",
        "coordinates": [
          [
            99.02835845947266,
            10.005367601855824
          ],
          [
            99.02835845947266,
            10.004522347447775
          ],
          [
            98.99728775024414,
            9.937909398362578
          ],
          [
            98.99625778198242,
            9.9297931860458
          ],
          [
            98.9948844909668,
            9.922860428632177
          ],
          [
            98.99505615234375,
            9.919647637624337
          ],
          [
            98.99213790893555,
            9.892591306656541
          ],
          [
            99.00175094604492,
            9.88447397257093
          ],
          [
            99.0036392211914,
            9.881937264565337
          ],
          [
            99.00707244873047,
            9.879907884073916
          ],
          [
            99.02338027954102,
            9.813438768683312
          ],
          [
            99.02853012084961,
            9.79567758282974
          ],
          [
            99.03230667114258,
            9.782144612590102
          ]
        ]
      }
    },
    {
      "type": "Feature",
      "properties": {
        "type": "transmission",
        "name": "บางสะพาน1-หลังสวน",
        "distance_km": 125.19,
        "voltage_class": "230000",
        "source": "OSM"
      },
      "geometry": {
        "type": "LineString",
        "coordinates": [
          [
            99.06612396240234,
            10.501315070730854
          ],
          [
            99.07367706298828,
            10.487811882056675
          ],
          [
            99.07796859741211,
            10.479878483930648
          ],
          [
            99.08157348632812,
            10.464686303523294
          ],
          [
            99.08208847045898,
            10.461310162350898
          ],
          [
            99.0831184387207,
            10.457596364635634
          ],
          [
            99.09461975097656,
            10.407962264102991
          ],
          [
            99.09255981445312,
            10.398338410967156
          ],
          [
            99.09341812133789,
            10.389220802777857
          ],
          [
            99.07882690429688,
            10.355280702833099
          ],
          [
            99.07161712646484,
            10.346161840415462
          ],
          [
            99.07144546508789,
            10.338055962488454
          ],
          [
            99.01479721069336,
            10.207319906352993
          ],
          [
            99.03316497802734,
            10.122160522227702
          ],
          [
            99.02835845947266,
            10.005367601855824
          ]
        ]
      }
    },
    {
      "type": "Feature",
      "properties": {
        "type": "transmission",
        "name": "intl-tx-hv-230",
        "distance_km": 107.62,
        "voltage_class": "230000",
        "source": "OSM"
      },
      "geometry": {
        "type": "LineString",
        "coordinates": [
          [
            99.06183242797852,
            10.016186663919896
          ],
          [
            99.063720703125,
            10.015679528442803
          ]
        ]
      }
    },
    {
      "type": "Feature",
      "properties": {
        "type": "transmission",
        "name": "intl-tx-hv-230",
        "distance_km": 107.75,
        "voltage_class": "230000",
        "source": "OSM"
      },
      "geometry": {
        "type": "LineString",
        "coordinates": [
          [
            99.06354904174805,
            10.015510483107605
          ],
          [
            99.06251907348633,
            10.015679528442803
          ],
          [
            99.06183242797852,
            10.016186663919896
          ]
        ]
      }
    },
    {
      "type": "Feature",
      "properties": {
        "type": "transmission",
        "name": "intl-tx-hv-230",
        "distance_km": 107.61,
        "voltage_class": "230000",
        "source": "OSM"
      },
      "geometry": {
        "type": "LineString",
        "coordinates": [
          [
            99.06183242797852,
            10.016186663919896
          ],
          [
            99.06389236450195,
            10.015848573689908
          ]
        ]
      }
    },
    {
      "type": "Feature",
      "properties": {
        "type": "transmission",
        "name": "intl-tx-hv-230",
        "distance_km": 108.77,
        "voltage_class": "115000;230000",
        "source": "OSM"
      },
      "geometry": {
        "type": "LineString",
        "coordinates": [
          [
            99.063720703125,
            10.016186663919896
          ],
          [
            99.0530776977539,
            10.01686284332277
          ]
        ]
      }
    },
    {
      "type": "Feature",
      "properties": {
        "type": "transmission",
        "name": "intl-tx-hv-230",
        "distance_km": 108.76,
        "voltage_class": "230000",
        "source": "OSM"
      },
      "geometry": {
        "type": "LineString",
        "coordinates": [
          [
            99.06183242797852,
            10.016186663919896
          ],
          [
            99.0530776977539,
            10.016693798604194
          ]
        ]
      }
    },
    {
      "type": "Feature",
      "properties": {
        "type": "transmission",
        "name": "intl-tx-hv-230",
        "distance_km": 109.05,
        "voltage_class": "230000",
        "source": "OSM"
      },
      "geometry": {
        "type": "LineString",
        "coordinates": [
          [
            99.0530776977539,
            10.016693798604194
          ],
          [
            99.05033111572266,
            10.016693798604194
          ]
        ]
      }
    },
    {
      "type": "Feature",
      "properties": {
        "type": "transmission",
        "name": "intl-tx-hv-230",
        "distance_km": 108.76,
        "voltage_class": "230000",
        "source": "OSM"
      },
      "geometry": {
        "type": "LineString",
        "coordinates": [
          [
            99.05033111572266,
            10.016693798604194
          ],
          [
            99.0530776977539,
            10.016693798604194
          ]
        ]
      }
    },
    {
      "type": "Feature",
      "properties": {
        "type": "transmission",
        "name": "บางสะพาน1-หลังสวน-สุราษฎร์",
        "distance_km": 109.25,
        "voltage_class": "230000",
        "source": "OSM"
      },
      "geometry": {
        "type": "LineString",
        "coordinates": [
          [
            99.05033111572266,
            10.016693798604194
          ],
          [
            99.04844284057617,
            10.016693798604194
          ],
          [
            99.02835845947266,
            10.005367601855824
          ]
        ]
      }
    },
    {
      "type": "Feature",
      "properties": {
        "type": "transmission",
        "name": "intl-tx-hv-230",
        "distance_km": 117.74,
        "voltage_class": "230000",
        "source": "OSM"
      },
      "geometry": {
        "type": "LineString",
        "coordinates": [
          [
            99.11710739135742,
            10.501315070730854
          ],
          [
            99.11453247070312,
            10.49675781046244
          ],
          [
            99.11659240722656,
            10.487811882056675
          ],
          [
            99.1189956665039,
            10.477008906900295
          ],
          [
            99.12294387817383,
            10.469750446383657
          ],
          [
            99.10818099975586,
            10.366594478286942
          ],
          [
            99.09204483032227,
            10.332145294608424
          ],
          [
            99.08981323242188,
            10.330287633169874
          ],
          [
            99.08981323242188,
            10.327078919373093
          ],
          [
            99.085693359375,
            10.318465894142747
          ],
          [
            99.08088684082031,
            10.308839292868484
          ],
          [
            99.07093048095703,
            10.29042971003038
          ],
          [
            99.05651092529297,
            10.255465437158733
          ],
          [
            99.05170440673828,
            10.238742028046602
          ],
          [
            99.03865814208984,
            10.190762915996345
          ],
          [
            99.04294967651367,
            10.149028729473628
          ],
          [
            99.04363632202148,
            10.104416132863122
          ],
          [
            99.0475845336914,
            10.049824878210188
          ],
          [
            99.05170440673828,
            10.018046153886146
          ],
          [
            99.05136108398438,
            9.988800214678562
          ],
          [
            99.02938842773438,
            9.963440335314615
          ],
          [
            99.02029037475586,
            9.941122010098994
          ],
          [
            99.02132034301758,
            9.914067452051526
          ],
          [
            99.02166366577148,
            9.912207369082594
          ],
          [
            99.03436660766602,
            9.876187320659966
          ],
          [
            99.04912948608398,
            9.810563212682439
          ],
          [
            99.05462265014648,
            9.79567758282974
          ],
          [
            99.05942916870117,
            9.782144612590102
          ]
        ]
      }
    },
    {
      "type": "Feature",
      "properties": {
        "type": "transmission",
        "name": "ขนอม-สุราษฎร์ธานี1",
        "distance_km": 83.62,
        "voltage_class": "230000",
        "source": "OSM"
      },
      "geometry": {
        "type": "LineString",
        "coordinates": [
          [
            99.8573112487793,
            9.232757112140376
          ],
          [
            99.84375,
            9.218185190245606
          ],
          [
            99.81851577758789,
            9.190903580619718
          ],
          [
            99.80255126953125,
            9.182769525995226
          ],
          [
            99.76615905761719,
            9.164975630903257
          ],
          [
            99.72204208374023,
            9.142096455894261
          ],
          [
            99.66814041137695,
            9.144299699743243
          ],
          [
            99.64754104614258,
            9.14362178001133
          ],
          [
            99.64204788208008,
            9.135825610324005
          ],
          [
            99.6236801147461,
            9.136842511700166
          ],
          [
            99.61732864379883,
            9.141249050783244
          ],
          [
            99.59243774414062,
            9.142265936674434
          ],
          [
            99.57183837890625,
            9.135147674460725
          ],
          [
            99.53424453735352,
            9.151078826035047
          ],
          [
            99.48566436767578,
            9.146672408636732
          ],
          [
            99.4815444946289,
            9.145486056167272
          ],
          [
            99.47931289672852,
            9.146163972348376
          ],
          [
            99.47639465332031,
            9.145994493424169
          ],
          [
            99.41030502319336,
            9.139893198410874
          ],
          [
            99.40652847290039,
            9.139554234511166
          ],
          [
            99.36395645141602,
            9.113114057252957
          ],
          [
            99.33700561523438,
            9.109893645429224
          ],
          [
            99.32670593261719,
            9.102605237825045
          ],
          [
            99.32516098022461,
            9.102096738726459
          ],
          [
            99.32344436645508,
            9.10141873880363
          ],
          [
            99.31983947753906,
            9.10141873880363
          ],
          [
            99.27709579467773,
            9.09413015847879
          ],
          [
            99.23641204833984,
            9.08853649617204
          ]
        ]
      }
    },
    {
      "type": "Feature",
      "properties": {
        "type": "transmission",
        "name": "ขนอม-นครศรีธรรมราช",
        "distance_km": 66.09,
        "voltage_class": "230000",
        "source": "OSM"
      },
      "geometry": {
        "type": "LineString",
        "coordinates": [
          [
            99.85748291015625,
            9.232587674647917
          ],
          [
            99.84375,
            9.21767685652658
          ],
          [
            99.81988906860352,
            9.191920324314026
          ],
          [
            99.80375289916992,
            9.142774378530902
          ],
          [
            99.7972297668457,
            9.123792057073985
          ],
          [
            99.80323791503906,
            9.102096738726459
          ],
          [
            99.80684280395508,
            9.08853649617204
          ]
        ]
      }
    },
    {
      "type": "Feature",
      "properties": {
        "type": "transmission",
        "name": "intl-tx-hv-230",
        "distance_km": 54.8,
        "voltage_class": "230000",
        "source": "OSM"
      },
      "geometry": {
        "type": "LineString",
        "coordinates": [
          [
            99.85834121704102,
            9.233943172306866
          ],
          [
            99.85748291015625,
            9.232587674647917
          ]
        ]
      }
    },
    {
      "type": "Feature",
      "properties": {
        "type": "transmission",
        "name": "intl-tx-hv-230",
        "distance_km": 54.64,
        "voltage_class": "230000",
        "source": "OSM"
      },
      "geometry": {
        "type": "LineString",
        "coordinates": [
          [
            99.85748291015625,
            9.232587674647917
          ],
          [
            99.85851287841797,
            9.233773735384588
          ]
        ]
      }
    },
    {
      "type": "Feature",
      "properties": {
        "type": "transmission",
        "name": "intl-tx-hv-230",
        "distance_km": 54.79,
        "voltage_class": "230000",
        "source": "OSM"
      },
      "geometry": {
        "type": "LineString",
        "coordinates": [
          [
            99.85834121704102,
            9.233943172306866
          ],
          [
            99.8573112487793,
            9.232757112140376
          ]
        ]
      }
    },
    {
      "type": "Feature",
      "properties": {
        "type": "transmission",
        "name": "intl-tx-hv-230",
        "distance_km": 54.62,
        "voltage_class": "230000",
        "source": "OSM"
      },
      "geometry": {
        "type": "LineString",
        "coordinates": [
          [
            99.8573112487793,
            9.232757112140376
          ],
          [
            99.85816955566406,
            9.234112609147687
          ]
        ]
      }
    },
    {
      "type": "Feature",
      "properties": {
        "type": "transmission",
        "name": "บางสะพาน2-สุราษฎธานี2",
        "distance_km": 123.12,
        "voltage_class": "500000",
        "source": "OSM"
      },
      "geometry": {
        "type": "LineString",
        "coordinates": [
          [
            99.05736923217773,
            10.501315070730854
          ],
          [
            99.05771255493164,
            10.499627204390052
          ],
          [
            99.06097412109375,
            10.49675781046244
          ],
          [
            99.06303405761719,
            10.493888389909714
          ],
          [
            99.07007217407227,
            10.487811882056675
          ],
          [
            99.07075881958008,
            10.487305501016223
          ],
          [
            99.07024383544922,
            10.473970502252925
          ],
          [
            99.07110214233398,
            10.47126967311469
          ],
          [
            99.0772819519043,
            10.46856882044628
          ],
          [
            99.08002853393555,
            10.465192721530272
          ],
          [
            99.07882690429688,
            10.46029731283582
          ],
          [
            99.08140182495117,
            10.457427554592769
          ],
          [
            99.0827751159668,
            10.451687958524104
          ],
          [
            99.08243179321289,
            10.449324564605647
          ],
          [
            99.0831184387207,
            10.446623520969368
          ],
          [
            99.08260345458984,
            10.442403093289457
          ],
          [
            99.07779693603516,
            10.43818260831408
          ],
          [
            99.07642364501953,
            10.43497500142719
          ],
          [
            99.07230377197266,
            10.42991029164439
          ],
          [
            99.07230377197266,
            10.426702599487939
          ],
          [
            99.0688705444336,
            10.423326045727734
          ],
          [
            99.06715393066406,
            10.418261146456402
          ],
          [
            99.07058715820312,
            10.414209167764767
          ],
          [
            99.07007217407227,
            10.412014323981822
          ],
          [
            99.07075881958008,
            10.410325972097084
          ],
          [
            99.07590866088867,
            10.407118078335571
          ],
          [
            99.07882690429688,
            10.406105052399269
          ],
          [
            99.08002853393555,
            10.403572473168708
          ],
          [
            99.0827751159668,
            10.400533350962377
          ],
          [
            99.08414840698242,
            10.39496155007636
          ],
          [
            99.085693359375,
            10.392428880448023
          ],
          [
            99.085693359375,
            10.38702578329098
          ],
          [
            99.08775329589844,
            10.384661898913023
          ],
          [
            99.08758163452148,
            10.382804548648878
          ],
          [
            99.08655166625977,
            10.381116038835572
          ],
          [
            99.08397674560547,
            10.380440632357747
          ],
          [
            99.08174514770508,
            10.377570138557232
          ],
          [
            99.08105850219727,
            10.370478217450298
          ],
          [
            99.08123016357422,
            10.367269914644794
          ],
          [
            99.07590866088867,
            10.363048413513212
          ],
          [
            99.07333374023438,
            10.357307080698646
          ],
          [
            99.05839920043945,
            10.341940055108935
          ],
          [
            99.05342102050781,
            10.325052346419199
          ],
          [
            99.0530776977539,
            10.318297008938046
          ],
          [
            99.0501594543457,
            10.312554858061617
          ],
          [
            99.04329299926758,
            10.309852633177371
          ],
          [
            99.041748046875,
            10.299550188175658
          ],
          [
            99.0420913696289,
            10.291443109512215
          ],
          [
            99.03865814208984,
            10.28924740652188
          ],
          [
            99.03676986694336,
            10.285362663813018
          ],
          [
            99.03419494628906,
            10.278606475700443
          ],
          [
            99.03299331665039,
            10.271681232946733
          ],
          [
            99.02801513671875,
            10.267289536986084
          ],
          [
            99.02029037475586,
            10.246681534310284
          ],
          [
            99.0194320678711,
            10.240938081581973
          ],
          [
            99.01582717895508,
            10.23722167438487
          ],
          [
            99.01514053344727,
            10.230802323055926
          ],
          [
            99.00672912597656,
            10.222355610391489
          ],
          [
            99.00518417358398,
            10.21424655496395
          ],
          [
            99.00758743286133,
            10.210698778176635
          ],
          [
            99.00810241699219,
            10.197689924851602
          ],
          [
            99.01187896728516,
            10.189242332922731
          ],
          [
            99.01514053344727,
            10.168629269457384
          ],
          [
            99.0146255493164,
            10.165080984923975
          ],
          [
            99.01548385620117,
            10.156632529856978
          ],
          [
            99.02544021606445,
            10.14463534023858
          ],
          [
            99.02578353881836,
            10.12841307338222
          ],
          [
            99.02509689331055,
            10.125878270033127
          ],
          [
            99.02372360229492,
            10.117259788866733
          ],
          [
            99.02750015258789,
            10.09613508256345
          ],
          [
            99.0226936340332,
            10.085318695927882
          ],
          [
            99.02303695678711,
            10.066727183025762
          ],
          [
            99.0201187133789,
            10.058445164176362
          ],
          [
            99.02063369750977,
            10.054726637648585
          ],
          [
            99.01960372924805,
            10.051515148482594
          ],
          [
            99.01754379272461,
            10.015003346573508
          ],
          [
            99.02063369750977,
            10.007227153809609
          ],
          [
            99.02063369750977,
            9.999957935637099
          ],
          [
            99.01857376098633,
            9.994379123021716
          ],
          [
            99.0256118774414,
            9.984573705264808
          ],
          [
            99.02544021606445,
            9.963778480021361
          ],
          [
            99.02286529541016,
            9.952619519658313
          ],
          [
            99.00741577148438,
            9.935711277410007
          ],
          [
            99.00724411010742,
            9.921338584187993
          ],
          [
            99.00312423706055,
            9.915758427410026
          ],
          [
            99.00724411010742,
            9.904428725991906
          ],
          [
            99.01582717895508,
            9.897495432157527
          ],
          [
            99.02647018432617,
            9.865363624344027
          ],
          [
            99.02200698852539,
            9.859275138875162
          ],
          [
            99.0256118774414,
            9.843715165303166
          ],
          [
            99.02750015258789,
            9.833905239826649
          ],
          [
            99.03162002563477,
            9.816483447828531
          ],
          [
            99.04706954956055,
            9.809040849401896
          ],
          [
            99.04912948608398,
            9.79567758282974
          ],
          [
            99.05084609985352,
            9.784343757774948
          ],
          [
            99.04895782470703,
            9.782144612590102
          ]
        ]
      }
    },
    {
      "type": "Feature",
      "properties": {
        "type": "transmission",
        "name": "สุราษฎร์ธานี1-บ้านดอน",
        "distance_km": 105.47,
        "voltage_class": "115000",
        "source": "OSM"
      },
      "geometry": {
        "type": "LineString",
        "coordinates": [
          [
            99.25907135009766,
            9.08853649617204
          ],
          [
            99.26164627075195,
            9.08972303790253
          ],
          [
            99.26387786865234,
            9.09006204910348
          ],
          [
            99.33185577392578,
            9.091418090697829
          ],
          [
            99.3380355834961,
            9.08853649617204
          ]
        ]
      }
    },
    {
      "type": "Feature",
      "properties": {
        "type": "transmission",
        "name": "ตะกั่วป่า-ระนอง",
        "distance_km": 180,
        "voltage_class": "115000",
        "source": "OSM"
      },
      "geometry": {
        "type": "MultiLineString",
        "coordinates": [
          [
            [
              98.448486328125,
              9.08853649617204
            ],
            [
              98.45500946044922,
              9.102096738726459
            ],
            [
              98.46582412719727,
              9.12463950369343
            ],
            [
              98.46633911132812,
              9.127859782485402
            ],
            [
              98.4598159790039,
              9.133961283596292
            ],
            [
              98.4375,
              9.141418531966806
            ],
            [
              98.42428207397461,
              9.145825014419245
            ],
            [
              98.42376708984375,
              9.146672408636732
            ]
          ],
          [
            [
              98.42376708984375,
              9.380983541629874
            ],
            [
              98.4375,
              9.391653412234476
            ],
            [
              98.43835830688477,
              9.392330853244843
            ],
            [
              98.45569610595703,
              9.412653467060466
            ],
            [
              98.47028732299805,
              9.429249382071248
            ],
            [
              98.50170135498047,
              9.454480416742811
            ],
            [
              98.50393295288086,
              9.474291409182655
            ],
            [
              98.52144241333008,
              9.496810208808682
            ],
            [
              98.5305404663086,
              9.51238625680675
            ],
            [
              98.53174209594727,
              9.520343311927675
            ],
            [
              98.53654861450195,
              9.528130888555978
            ],
            [
              98.54307174682617,
              9.534733260017916
            ],
            [
              98.54976654052734,
              9.540827643332719
            ],
            [
              98.56212615966797,
              9.554539607335371
            ],
            [
              98.5586929321289,
              9.581454077883834
            ],
            [
              98.5528564453125,
              9.586532040741062
            ],
            [
              98.54393005371094,
              9.602442498644606
            ],
            [
              98.5858154296875,
              9.710918292492337
            ],
            [
              98.59285354614258,
              9.73477488153722
            ],
            [
              98.5942268371582,
              9.742895884969741
            ]
          ]
        ]
      }
    }
  ]
}
